#aV2012 10 31  0  0  0.00000000     288 DD+AD WGS84 FIT  NGA
## 1712 259200.00000000   300.00000000 56231 0.0000000000000
+   31     1  2  3  4  5  6  7  8  9 10 11 12 13 14 15 16 17
+         18 19 20 21 22 23 24 25 26 28 29 30 31 32  0  0  0
+          0  0  0  0  0  0  0  0  0  0  0  0  0  0  0  0  0
+          0  0  0  0  0  0  0  0  0  0  0  0  0  0  0  0  0
+          0  0  0  0  0  0  0  0  0  0  0  0  0  0  0  0  0
++         2  2  2  2  2  2  2  2  2  2  2  2  2  2  2  2  2
++         2  2  2  2  2  2  2  2  2  2  2  2  2  2  2  0  0
++         0  0  0  0  0  0  0  0  0  0  0  0  0  0  0  0  0
++         0  0  0  0  0  0  0  0  0  0  0  0  0  0  0  0  0
++         0  0  0  0  0  0  0  0  0  0  0  0  0  0  0  0  0
%c cc cc ccc ccc cccc cccc cccc cccc ccccc ccccc ccccc ccccc
%c cc cc ccc ccc cccc cccc cccc cccc ccccc ccccc ccccc ccccc
%f  0.0000000  0.000000000  0.00000000000  0.000000000000000
%f  0.0000000  0.000000000  0.00000000000  0.000000000000000
%i    0    0    0    0      0      0      0      0         0
%i    0    0    0    0      0      0      0      0         0
/*      NGA, ST. LOUIS,MO.                                  
/*   EPHEMERIS COMPUTED FROM  1 DAYS OF DATA
/*   EPOCHA SMOOTHER  
/* CCCCCCCCCCCCCCCCCCCCCCCCCCCCCCCCCCCCCCCCCCCCCCCCCCCCCCCCC
*  2012 10 31  1  5  0.00000000                                                 
P  1 -14321.605341  20976.221050   7646.827871    280.190082                    
V  1   1163.130506 -10059.278387  29744.118614      0.017499                    
P  2  16593.224470  -1381.214967 -20438.997116    407.513587                    
V  2  -8400.097934  25159.008122  -8962.813064      0.011046                    
P  3 -20846.818425  -4210.833687  15559.637304    121.783140                    
V  3 -13023.271023 -16223.590390 -20926.380526      0.051389                    
P  4  10494.416849  13794.938184 -20323.588452     31.873980                    
V  4 -10743.372612  23014.277615  10512.690346      0.112509                    
P  5  26470.011649  -2113.063731  -2148.098400   -363.254975                    
V  5  -2252.568416   3351.001178 -31275.262887     -0.026569                    
P  6 -21240.520528  -9977.058190  12843.497163    470.916667                    
V  6  -8672.305499 -13777.751821 -24916.131567     -0.101169                    
P  7  -5616.497066  24880.256105   6892.288270    139.752535                    
V  7  -5708.749414   7076.442463 -30640.705258      0.044915                    
P  8   2685.754186  19306.622966  17838.933910      2.619751                    
V  8 -11829.481811  19321.793338 -19803.082590      0.001386                    
P  9  15327.390666 -18299.037458  11164.504568    196.251373                    
V  9  -3821.020533  14591.248545  27745.616893      0.028016                    
P 10  18004.274929  10308.082717 -17081.338367    -56.913287                    
V 10 -20715.834569   4164.456945 -19225.817024     -0.012312                    
P 11 -13357.407307  17645.235190  14057.267671   -318.239875                    
V 11  -1988.107954 -19230.247980  21908.512681     -0.039115                    
P 12  19178.639364 -11576.384243 -14137.478196     99.025410                    
V 12  18040.697104   -177.720250  24835.458178      0.020259                    
P 13   1475.809036  21589.391279 -15455.083092    170.679721                    
V 13 -11645.827629 -15571.099301 -23169.742236     -0.026832                    
P 14 -14436.074065 -22384.412096    726.708559    215.860818                    
V 14   2199.426989   -658.694641  31984.513526      0.007033                    
P 15  14139.265922  -7143.027825  21331.040821    -98.493319                    
V 15  16910.882805  21238.885562  -3864.498636     -0.008855                    
P 16 -26635.035327   1002.625731  -2085.306649   -248.814943                    
V 16   2435.200756  -2069.345306 -31881.618988     -0.006053                    
P 17  15351.505696  21839.539440    350.632211     83.060800                    
V 17  -2180.477194   1293.185981  31649.302128     -0.034905                    
P 18  -1231.783669 -16043.684454  21504.090684    222.261608                    
V 18  26371.342402  -3171.468210  -1227.935495      0.018324                    
P 19 -15529.943752   3314.023668  21271.294515   -317.757797                    
V 19 -14272.269281 -23067.064198  -6408.535274     -0.034798                    
P 20 -16790.963212  14382.612010 -14829.971022     71.974800                    
V 20 -18850.379973    726.987227  22369.467693      0.010532                    
P 21   1693.959158 -24315.664819  10363.218626   -259.200876                    
V 21   8150.699951 -10341.341443 -27503.760129     -0.023587                    
P 22 -15683.675712 -11745.485637  18173.258366    150.321134                    
V 22  22345.739020  -4799.828299  16222.062877      0.008097                    
P 23  -8542.757253  13388.008705 -21170.838332    148.937572                    
V 23 -16959.017190 -21152.510754  -6893.901759     -0.038992                    
P 24  11647.638959  11220.609214  21371.136374      3.299742                    
V 24 -10441.866567  24501.859426  -7172.094755      0.016013                    
P 25   6801.236190 -15267.858875 -20664.464004     48.833033                    
V 25  25991.399064  -2892.418650  10775.520084      0.017352                    
P 26  18330.542879   6946.534808  17465.316352   -227.389813                    
V 26  11469.498861  20262.014759 -19072.323451      0.135748                    
P 28  11785.143441  12877.282704  20647.729356    200.057021                    
V 28 -24702.646252   2689.610722  12569.421583      0.036142                    
P 29   -153.403956 -20521.658431 -16833.881480    371.829316                    
V 29  13745.726265  16551.831769 -20202.567378      0.040489                    
P 30 -22768.140947  -4113.735126 -13380.534646   -341.290190                    
V 30  15462.760245  -5901.592848 -25193.919873      0.165249                    
P 31 -11269.167309 -10248.602609 -21535.703885    283.905943                    
V 31  11560.164622 -25265.568915   6164.225205      0.022842                    
P 32 -24061.964099   6844.762321  -7942.629588   -503.344475                    
V 32 -10633.433879  -2844.000424  29608.475695     -0.036303                    
EOF
